{
  "type": "FeatureCollection",
  "features": [
    {
      "type": "Feature",
      "properties": {
        "norad_id": 30719,
        "name": "FENGYUN 1C DEB",
        "group": "fengyun-1c-debris",
        "lat": -76.46432502761313,
        "lon": 176.7561422326905,
        "alt_km": 704.0898696584472,
        "timestamp": "2025-12-19T22:41:52.671627+00:00",
        "meta_object_name": "FENGYUN 1C DEB",
        "meta_object_id": "1999-025ASD",
        "meta_epoch": "2025-12-19T16:28:54.770592",
        "meta_mean_motion": 14.5945209,
        "meta_eccentricity": 0.0010734,
        "meta_inclination": 98.8875,
        "meta_ra_of_asc_node": 135.9385,
        "meta_arg_of_pericenter": 176.7901,
        "meta_mean_anomaly": 183.3367,
        "meta_ephemeris_type": 0,
        "meta_classification_type": "U",
        "meta_norad_cat_id": 30719,
        "meta_element_set_no": 999,
        "meta_rev_at_epoch": 97550,
        "meta_bstar": 0.0022765,
        "meta_mean_motion_dot": 0.00010765,
        "meta_mean_motion_ddot": 0,
        "tle_line1": "1 30719U 99025ASD 25353.68674503  .00010765  00000+0  22765-2 0  9994",
        "tle_line2": "2 30719  98.8875 135.9385 0010734 176.7901 183.3367 14.59452090975503"
      },
      "geometry": {
        "type": "Point",
        "coordinates": [
          176.7561422326905,
          -76.46432502761313
        ]
      }
    },
    {
      "type": "Feature",
      "properties": {
        "norad_id": 30720,
        "name": "FENGYUN 1C DEB",
        "group": "fengyun-1c-debris",
        "lat": -50.32354126580355,
        "lon": -23.363019029014676,
        "alt_km": 796.1314045211129,
        "timestamp": "2025-12-19T22:41:52.671638+00:00",
        "meta_object_name": "FENGYUN 1C DEB",
        "meta_object_id": "1999-025ASE",
        "meta_epoch": "2025-12-18T06:06:36.057600",
        "meta_mean_motion": 14.29134102,
        "meta_eccentricity": 0.00324098,
        "meta_inclination": 99.0363,
        "meta_ra_of_asc_node": 165.9451,
        "meta_arg_of_pericenter": 312.9007,
        "meta_mean_anomaly": 222.6265,
        "meta_ephemeris_type": 0,
        "meta_classification_type": "U",
        "meta_norad_cat_id": 30720,
        "meta_element_set_no": 999,
        "meta_rev_at_epoch": 97567,
        "meta_bstar": 0.0003238264,
        "meta_mean_motion_dot": 7.78e-06,
        "meta_mean_motion_ddot": 0,
        "tle_line1": "1 30720U 99025ASE 25352.25458400  .00000778  00000+0  32383-3 0  9995",
        "tle_line2": "2 30720  99.0363 165.9451 0032409 312.9007 222.6265 14.29134102975671"
      },
      "geometry": {
        "type": "Point",
        "coordinates": [
          -23.363019029014676,
          -50.32354126580355
        ]
      }
    },
    {
      "type": "Feature",
      "properties": {
        "norad_id": 30721,
        "name": "FENGYUN 1C DEB",
        "group": "fengyun-1c-debris",
        "lat": 40.94799832502415,
        "lon": -46.60238249600121,
        "alt_km": 670.8083894668298,
        "timestamp": "2025-12-19T22:41:52.671648+00:00",
        "meta_object_name": "FENGYUN 1C DEB",
        "meta_object_id": "1999-025ASF",
        "meta_epoch": "2025-12-18T08:49:45.071328",
        "meta_mean_motion": 14.72095692,
        "meta_eccentricity": 0.0028233,
        "meta_inclination": 98.709,
        "meta_ra_of_asc_node": 124.0657,
        "meta_arg_of_pericenter": 322.4727,
        "meta_mean_anomaly": 98.7413,
        "meta_ephemeris_type": 0,
        "meta_classification_type": "U",
        "meta_norad_cat_id": 30721,
        "meta_element_set_no": 999,
        "meta_rev_at_epoch": 97925,
        "meta_bstar": 0.002640869,
        "meta_mean_motion_dot": 0.00016696,
        "meta_mean_motion_ddot": 0,
        "tle_line1": "1 30721U 99025ASF 25352.36788277  .00016696  00000+0  26409-2 0  9993",
        "tle_line2": "2 30721  98.7090 124.0657 0028233 322.4727  98.7413 14.72095692979257"
      },
      "geometry": {
        "type": "Point",
        "coordinates": [
          -46.60238249600121,
          40.94799832502415
        ]
      }
    },
    {
      "type": "Feature",
      "properties": {
        "norad_id": 30723,
        "name": "FENGYUN 1C DEB",
        "group": "fengyun-1c-debris",
        "lat": -60.006426830516894,
        "lon": 95.86796631647539,
        "alt_km": 754.8200511139858,
        "timestamp": "2025-12-19T22:41:52.671659+00:00",
        "meta_object_name": "FENGYUN 1C DEB",
        "meta_object_id": "1999-025ASH",
        "meta_epoch": "2025-12-19T11:54:56.467296",
        "meta_mean_motion": 14.41424955,
        "meta_eccentricity": 0.0016029,
        "meta_inclination": 98.844,
        "meta_ra_of_asc_node": 79.7542,
        "meta_arg_of_pericenter": 242.1527,
        "meta_mean_anomaly": 246.5834,
        "meta_ephemeris_type": 0,
        "meta_classification_type": "U",
        "meta_norad_cat_id": 30723,
        "meta_element_set_no": 999,
        "meta_rev_at_epoch": 97468,
        "meta_bstar": 0.001492,
        "meta_mean_motion_dot": 4.8e-05,
        "meta_mean_motion_ddot": 0,
        "tle_line1": "1 30723U 99025ASH 25353.49648689  .00004800  00000+0  14920-2 0  9991",
        "tle_line2": "2 30723  98.8440  79.7542 0016029 242.1527 246.5834 14.41424955974680"
      },
      "geometry": {
        "type": "Point",
        "coordinates": [
          95.86796631647539,
          -60.006426830516894
        ]
      }
    },
    {
      "type": "Feature",
      "properties": {
        "norad_id": 30724,
        "name": "FENGYUN 1C DEB",
        "group": "fengyun-1c-debris",
        "lat": 78.87252748416395,
        "lon": 55.78065508323929,
        "alt_km": 813.5299417974247,
        "timestamp": "2025-12-19T22:41:52.671669+00:00",
        "meta_object_name": "FENGYUN 1C DEB",
        "meta_object_id": "1999-025ASJ",
        "meta_epoch": "2025-12-19T07:47:44.153376",
        "meta_mean_motion": 14.37064094,
        "meta_eccentricity": 0.0093044,
        "meta_inclination": 99.3155,
        "meta_ra_of_asc_node": 178.5439,
        "meta_arg_of_pericenter": 240.6402,
        "meta_mean_anomaly": 245.5576,
        "meta_ephemeris_type": 0,
        "meta_classification_type": "U",
        "meta_norad_cat_id": 30724,
        "meta_element_set_no": 999,
        "meta_rev_at_epoch": 98547,
        "meta_bstar": 0.0003194,
        "meta_mean_motion_dot": 9.43e-06,
        "meta_mean_motion_ddot": 0,
        "tle_line1": "1 30724U 99025ASJ 25353.32481659  .00000943  00000+0  31940-3 0  9992",
        "tle_line2": "2 30724  99.3155 178.5439 0093044 240.6402 245.5576 14.37064094985470"
      },
      "geometry": {
        "type": "Point",
        "coordinates": [
          55.78065508323929,
          78.87252748416395
        ]
      }
    },
    {
      "type": "Feature",
      "properties": {
        "norad_id": 30725,
        "name": "FENGYUN 1C DEB",
        "group": "fengyun-1c-debris",
        "lat": 69.76030557786706,
        "lon": 37.36261085110891,
        "alt_km": 801.8840231239656,
        "timestamp": "2025-12-19T22:41:52.671683+00:00",
        "meta_object_name": "FENGYUN 1C DEB",
        "meta_object_id": "1999-025ASK",
        "meta_epoch": "2025-12-18T04:13:47.040960",
        "meta_mean_motion": 14.16096218,
        "meta_eccentricity": 0.00869506,
        "meta_inclination": 99.0078,
        "meta_ra_of_asc_node": 61.0543,
        "meta_arg_of_pericenter": 14.8425,
        "meta_mean_anomaly": 40.2494,
        "meta_ephemeris_type": 0,
        "meta_classification_type": "U",
        "meta_norad_cat_id": 30725,
        "meta_element_set_no": 999,
        "meta_rev_at_epoch": 96425,
        "meta_bstar": 0.00092452617,
        "meta_mean_motion_dot": 1.85e-05,
        "meta_mean_motion_ddot": 0,
        "tle_line1": "1 30725U 99025ASK 25352.17623890  .00001850  00000+0  92453-3 0  9994",
        "tle_line2": "2 30725  99.0078  61.0543 0086950  14.8425  40.2494 14.16096218964250"
      },
      "geometry": {
        "type": "Point",
        "coordinates": [
          37.36261085110891,
          69.76030557786706
        ]
      }
    },
    {
      "type": "Feature",
      "properties": {
        "norad_id": 30726,
        "name": "FENGYUN 1C DEB",
        "group": "fengyun-1c-debris",
        "lat": -68.7256241207461,
        "lon": 20.690651090637022,
        "alt_km": 861.7621397505554,
        "timestamp": "2025-12-19T22:41:52.671694+00:00",
        "meta_object_name": "FENGYUN 1C DEB",
        "meta_object_id": "1999-025ASL",
        "meta_epoch": "2025-12-19T11:49:59.324736",
        "meta_mean_motion": 14.09325335,
        "meta_eccentricity": 0.0078312,
        "meta_inclination": 99.2669,
        "meta_ra_of_asc_node": 355.4341,
        "meta_arg_of_pericenter": 207.3152,
        "meta_mean_anomaly": 305.5177,
        "meta_ephemeris_type": 0,
        "meta_classification_type": "U",
        "meta_norad_cat_id": 30726,
        "meta_element_set_no": 999,
        "meta_rev_at_epoch": 96078,
        "meta_bstar": 0.00078382,
        "meta_mean_motion_dot": 1.358e-05,
        "meta_mean_motion_ddot": 0,
        "tle_line1": "1 30726U 99025ASL 25353.49304774  .00001358  00000+0  78382-3 0  9996",
        "tle_line2": "2 30726  99.2669 355.4341 0078312 207.3152 305.5177 14.09325335960780"
      },
      "geometry": {
        "type": "Point",
        "coordinates": [
          20.690651090637022,
          -68.7256241207461
        ]
      }
    }
  ]
}